{
  "norad_id": 43572,
  "name": "IRIDIUM 165",
  "history": [
    {
      "epoch": "2026-03-28T16:56:42.374400Z",
      "apogee_km": 779.280541881868,
      "perigee_km": 776.0538466545877,
      "latitude_deg": 2.0120379028329915e-05,
      "longitude_deg": 10.162594718459932,
      "height_km": 780.7944622375084,
      "semi_major_axis_km": 7155.804194268228,
      "eccentricity": 0.00022546,
      "inclination_deg": 86.3911,
      "raan_deg": 90.4618,
      "arg_perigee_deg": 92.8466,
      "mean_anomaly_deg": 267.2988,
      "mean_motion_rev_day": 14.34217738
    },
    {
      "epoch": "2026-03-28T21:58:06.377376Z",
      "apogee_km": 779.2845657111957,
      "perigee_km": 776.0501421432209,
      "latitude_deg": 5.6761031119318894e-05,
      "longitude_deg": -65.48131646783222,
      "height_km": 780.7925223549245,
      "semi_major_axis_km": 7155.804353927208,
      "eccentricity": 0.000226,
      "inclination_deg": 86.3911,
      "raan_deg": 90.3742,
      "arg_perigee_deg": 92.7659,
      "mean_anomaly_deg": 267.3796,
      "mean_motion_rev_day": 14.3421769
    },
    {
      "epoch": "2026-03-30T02:26:02.387328Z",
      "apogee_km": 779.2933187469398,
      "perigee_km": 776.0431520090306,
      "latitude_deg": -7.579173560417193e-05,
      "longitude_deg": -134.1302379313969,
      "height_km": 780.7851256181109,
      "semi_major_axis_km": 7155.805235377985,
      "eccentricity": 0.0002271,
      "inclination_deg": 86.3911,
      "raan_deg": 89.8777,
      "arg_perigee_deg": 92.4604,
      "mean_anomaly_deg": 267.6851,
      "mean_motion_rev_day": 14.34217425
    },
    {
      "epoch": "2026-03-30T05:46:58.389312Z",
      "apogee_km": 779.2917294704721,
      "perigee_km": 776.0448543773146,
      "latitude_deg": 4.9162222846629585e-05,
      "longitude_deg": 175.44049446651098,
      "height_km": 780.7821096691791,
      "semi_major_axis_km": 7155.805291923893,
      "eccentricity": 0.00022687,
      "inclination_deg": 86.3912,
      "raan_deg": 89.8193,
      "arg_perigee_deg": 92.3549,
      "mean_anomaly_deg": 267.7907,
      "mean_motion_rev_day": 14.34217408
    },
    {
      "epoch": "2026-03-30T12:28:50.392416Z",
      "apogee_km": 779.2924815920824,
      "perigee_km": 776.044461488551,
      "latitude_deg": 3.880333568702889e-05,
      "longitude_deg": 74.58194654456908,
      "height_km": 780.7804799747403,
      "semi_major_axis_km": 7155.805471540316,
      "eccentricity": 0.00022695,
      "inclination_deg": 86.3912,
      "raan_deg": 89.7025,
      "arg_perigee_deg": 92.2902,
      "mean_anomaly_deg": 267.8554,
      "mean_motion_rev_day": 14.34217354
    },
    {
      "epoch": "2026-03-30T17:30:14.302080Z",
      "apogee_km": 779.2845752313151,
      "perigee_km": 776.0439990604182,
      "latitude_deg": -1.0094934166493728e-05,
      "longitude_deg": -1.0615798199444724,
      "height_km": 780.7609451001558,
      "semi_major_axis_km": 7155.801287145866,
      "eccentricity": 0.00022643,
      "inclination_deg": 86.3912,
      "raan_deg": 89.6149,
      "arg_perigee_deg": 91.7518,
      "mean_anomaly_deg": 268.3937,
      "mean_motion_rev_day": 14.34218612
    },
    {
      "epoch": "2026-03-31T16:56:46.277952Z",
      "apogee_km": 779.3663597662589,
      "perigee_km": 775.9601988333134,
      "latitude_deg": -3.571375897469101e-05,
      "longitude_deg": 5.933349494856013,
      "height_km": 780.7617811474928,
      "semi_major_axis_km": 7155.800279299786,
      "eccentricity": 0.000238,
      "inclination_deg": 86.391,
      "raan_deg": 89.2058,
      "arg_perigee_deg": 91.7357,
      "mean_anomaly_deg": 268.4111,
      "mean_motion_rev_day": 14.34218915
    },
    {
      "epoch": "2026-04-01T18:03:46.299744Z",
      "apogee_km": 779.3820983897986,
      "perigee_km": 775.9487443880171,
      "latitude_deg": -5.794203611941505e-05,
      "longitude_deg": -12.286246454539521,
      "height_km": 780.7531159573389,
      "semi_major_axis_km": 7155.8024213889075,
      "eccentricity": 0.0002399,
      "inclination_deg": 86.3912,
      "raan_deg": 88.7678,
      "arg_perigee_deg": 91.3622,
      "mean_anomaly_deg": 268.7848,
      "mean_motion_rev_day": 14.34218271
    },
    {
      "epoch": "2026-04-02T14:09:22.343616Z",
      "apogee_km": 779.3643629651233,
      "perigee_km": 775.9700787909924,
      "latitude_deg": -5.076809216405139e-05,
      "longitude_deg": 45.13786753430709,
      "height_km": 780.7313020179001,
      "semi_major_axis_km": 7155.804220878058,
      "eccentricity": 0.00023717,
      "inclination_deg": 86.3913,
      "raan_deg": 88.4173,
      "arg_perigee_deg": 90.5791,
      "mean_anomaly_deg": 269.5676,
      "mean_motion_rev_day": 14.3421773
    },
    {
      "epoch": "2026-04-02T22:31:42.336480Z",
      "apogee_km": 779.2904866466961,
      "perigee_km": 776.0446137027366,
      "latitude_deg": 3.758990855614157e-05,
      "longitude_deg": -80.93506514705363,
      "height_km": 780.7288688306726,
      "semi_major_axis_km": 7155.804550174716,
      "eccentricity": 0.0002268,
      "inclination_deg": 86.3915,
      "raan_deg": 88.2715,
      "arg_perigee_deg": 90.5018,
      "mean_anomaly_deg": 269.6438,
      "mean_motion_rev_day": 14.34217631
    },
    {
      "epoch": "2026-04-03T16:56:50.379360Z",
      "apogee_km": 779.2945663666787,
      "perigee_km": 776.0443990622289,
      "latitude_deg": 2.4738124385914797e-06,
      "longitude_deg": 1.7037832629085357,
      "height_km": 780.7166476462761,
      "semi_major_axis_km": 7155.8064827144535,
      "eccentricity": 0.0002271,
      "inclination_deg": 86.3916,
      "raan_deg": 87.9503,
      "arg_perigee_deg": 90.0022,
      "mean_anomaly_deg": 270.1434,
      "mean_motion_rev_day": 14.3421705
    }
  ]
}